OBJECT_NAME,OBJECT_ID,EPOCH,MEAN_MOTION,ECCENTRICITY,INCLINATION,RA_OF_ASC_NODE,ARG_OF_PERICENTER,MEAN_ANOMALY,EPHEMERIS_TYPE,CLASSIFICATION_TYPE,NORAD_CAT_ID,ELEMENT_SET_NO,REV_AT_EPOCH,BSTAR,MEAN_MOTION_DOT,MEAN_MOTION_DDOT
STARLINK-4148,2022-086BD,2024-12-04T13:58:19.710048,15.08836427,.0001599,53.2186,79.6143,95.9505,264.1670,0,U,53293,999,13186,.48752E-4,.488E-5,0
STARLINK-4146,2022-086BE,2024-12-04T14:24:47.960640,15.08837213,.0001528,53.2195,79.3734,83.8724,276.2442,0,U,53294,999,13191,-.21599E-4,-.632E-5,0
2022-087A,2022-087A,2024-12-04T13:17:18.747744,15.68148700,.000242,97.3114,61.2333,232.0059,128.0984,0,U,53299,999,13207,.1181E-2,.133133E-2,0
LZWN (JINAN 1),2022-087B,2024-12-04T13:46:12.612576,15.59411286,.0006226,97.3075,59.0144,99.9279,260.2680,0,U,53300,999,13194,.10189E-2,.81108E-3,0
2022-087E,2022-087E,2024-12-04T14:26:03.971904,15.60882960,.0005735,97.3227,63.5270,95.1957,264.9955,0,U,53303,999,13219,.42342E-3,.3538E-3,0
YAOGAN-35 03A,2022-088A,2024-12-04T13:37:28.504128,15.42309973,.0047831,34.9975,87.2485,188.9728,171.0141,0,U,53316,999,13140,.24595E-4,.1089E-4,0
YAOGAN-35 03B,2022-088C,2024-12-04T13:36:39.158496,15.23011277,.0007588,34.9907,117.9541,307.2163,52.7858,0,U,53318,999,13108,.80319E-3,.19384E-3,0
YAOGAN-35 03C,2022-088E,2024-12-04T13:32:08.815488,15.23010809,.0005711,34.9920,118.0087,331.7986,28.2419,0,U,53320,999,13108,.10474E-2,.253E-3,0
COSMOS 2558,2022-089A,2024-12-04T17:20:15.041184,15.33860394,.0005221,97.2417,74.0135,186.1606,173.9574,0,U,53323,999,13138,.8971E-3,.29393E-3,0
TECMS,2022-090A,2024-12-04T13:27:40.318848,15.21194068,.000558,97.3810,50.2808,257.9493,102.1118,0,U,53346,999,12973,.49298E-3,.10937E-3,0
SBIRS GEO-6 (USA 336),2022-092A,2024-12-04T09:40:25.888224,1.00271167,.0002078,4.3038,311.7557,300.1480,105.9404,0,U,53355,999,862,0,-.27E-5,0
KHAYYAM,2022-096A,2024-12-04T13:54:23.824224,15.25967135,.000258,97.3792,242.1535,95.7072,264.4460,0,U,53370,999,12930,.54765E-3,.1401E-3,0
STARLINK-4522,2022-097A,2024-12-04T13:17:15.734112,15.08838675,.0001588,53.2166,29.7490,95.8463,264.2710,0,U,53388,999,12938,.38981E-3,.5921E-4,0
STARLINK-4523,2022-097B,2024-12-04T13:06:40.123008,15.08838300,.0001167,53.2187,29.7791,104.9760,255.1362,0,U,53389,999,12920,-.70431E-4,-.1408E-4,0
STARLINK-4517,2022-097C,2024-12-04T13:11:58.206336,15.08835868,.0001558,53.2193,29.7626,109.3487,250.7673,0,U,53390,999,12935,-.17309E-4,-.563E-5,0
STARLINK-4521,2022-097D,2024-12-04T09:50:35.742624,15.08839630,.0001856,53.2164,30.3935,86.6874,273.4330,0,U,53391,999,12918,-.62366E-4,-.1281E-4,0
STARLINK-4535,2022-097E,2024-12-04T11:15:22.577184,15.08844586,.0001837,53.2199,30.1300,61.8691,298.2487,0,U,53392,999,12919,.63912E-4,.729E-5,0
STARLINK-4530,2022-097F,2024-12-04T11:20:40.806528,15.08837133,.000143,53.2166,30.1139,91.5762,268.5394,0,U,53393,999,12919,-.33515E-4,-.821E-5,0
STARLINK-4544,2022-097G,2024-12-04T10:02:26.062944,15.08852276,.0001558,53.2186,19.9723,105.4222,254.6942,0,U,53394,999,12933,-.20286E-3,-.3516E-4,0
STARLINK-4534,2022-097H,2024-12-04T12:46:51.182112,15.08840508,.0001593,53.2187,29.8586,82.8609,277.2564,0,U,53395,999,12904,-.33917E-4,-.828E-5,0
STARLINK-4524,2022-097J,2024-12-04T12:24:16.519104,15.08837107,.0001474,53.2186,29.9169,85.5917,274.5244,0,U,53396,999,12904,-.12912E-4,-.493E-5,0
STARLINK-4515,2022-097K,2024-12-04T12:40:11.528544,15.08827023,.0001781,53.2199,29.8680,93.0534,267.0662,0,U,53397,999,12904,-.89296E-4,-.1708E-4,0
STARLINK-4512,2022-097L,2024-12-04T13:49:03.869472,15.08834568,.0001413,53.2183,29.6530,84.8434,275.2719,0,U,53398,999,12905,-.99599E-5,-.446E-5,0
STARLINK-4528,2022-097M,2024-12-04T12:29:33.845568,15.08842085,.0001735,53.2183,29.8992,81.5799,278.5390,0,U,53399,999,12904,.35575E-4,.278E-5,0
STARLINK-4520,2022-097N,2024-12-04T13:33:08.776224,15.08843098,.0001562,53.2179,29.6990,101.8554,258.2613,0,U,53400,999,12905,.89649E-4,.1139E-4,0
STARLINK-4525,2022-097P,2024-12-04T10:43:36.359904,15.08822706,.000117,53.2171,30.2303,98.9043,261.2082,0,U,53401,999,12903,-.13642E-3,-.2457E-4,0
STARLINK-4499,2022-097Q,2024-12-04T13:27:51.817824,15.08839956,.000143,53.2184,29.7179,80.2408,279.8746,0,U,53402,999,12905,-.72653E-4,-.1444E-4,0
STARLINK-4507,2022-097R,2024-12-04T12:57:29.724768,15.08846341,.0001457,53.2176,30.1584,88.4870,271.6289,0,U,53403,999,12904,.12269E-3,.1666E-4,0
STARLINK-4509,2022-097S,2024-12-04T13:04:02.784288,15.08842540,.0001298,53.2186,19.7240,89.1465,270.9676,0,U,53404,999,12918,.19421E-4,.21E-6,0
STARLINK-4510,2022-097T,2024-12-04T13:22:34.195872,15.08833517,.0001552,53.2164,29.7328,96.1132,264.0037,0,U,53405,999,12905,.44289E-4,.417E-5,0
STARLINK-4533,2022-097U,2024-12-04T12:46:47.161056,15.08841133,.0001656,53.2167,19.8424,98.2333,261.8847,0,U,53406,999,12918,.11289E-3,.1509E-4,0
STARLINK-4537,2022-097V,2024-12-04T11:23:22.918848,15.08830039,.000164,53.2199,10.3377,76.7100,283.4075,0,U,53407,999,12931,-.29147E-4,-.752E-5,0
STARLINK-4491,2022-097W,2024-12-04T13:02:41.616672,15.08835924,.0001244,53.2183,19.8016,88.6170,271.4965,0,U,53408,999,12918,.4443E-4,.419E-5,0
STARLINK-4490,2022-097X,2024-12-04T11:18:04.137408,15.08835770,.0001715,53.2187,10.3175,94.5879,265.5309,0,U,53409,999,12931,.16475E-4,-.26E-6,0
STARLINK-4492,2022-097Y,2024-12-04T09:46:36.901920,15.08839651,.0001485,53.2185,20.4086,91.4801,268.6361,0,U,53410,999,12916,-.2336E-5,-.325E-5,0
STARLINK-4497,2022-097Z,2024-12-04T09:57:12.677184,15.08841062,.0001347,53.2184,20.3761,89.0557,271.0590,0,U,53411,999,12916,.45692E-4,.439E-5,0
STARLINK-4496,2022-097AA,2024-12-04T11:06:04.612896,15.08853712,.0001532,53.2179,20.1546,106.6094,253.5066,0,U,53412,999,12917,.17975E-3,.2575E-4,0
STARLINK-4500,2022-097AB,2024-12-04T12:52:04.279296,15.08839516,.0001218,53.2180,19.8280,98.1944,261.9186,0,U,53413,999,12918,.25761E-3,.3814E-4,0
STARLINK-4304,2022-097AC,2024-12-04T12:36:11.514528,15.08856947,.0001119,53.2164,19.8776,111.4691,248.6421,0,U,53414,999,12917,-.18856E-4,-.588E-5,0
STARLINK-4479,2022-097AD,2024-12-04T12:30:52.709760,15.08834220,.0001291,53.2169,19.8936,98.2479,261.8659,0,U,53415,999,12915,.25576E-3,.3784E-4,0
STARLINK-4480,2022-097AE,2024-12-04T10:34:18.528672,15.08841056,.0001758,53.2178,20.2120,90.5626,269.5568,0,U,53416,999,12914,-.32697E-4,-.808E-5,0
STARLINK-4484,2022-097AF,2024-12-04T12:25:35.971680,15.08836264,.0002219,53.2176,19.9078,95.1068,265.0177,0,U,53417,999,12915,-.10556E-3,-.1968E-4,0
STARLINK-4481,2022-097AG,2024-12-04T09:53:10.128192,15.08834805,.0001441,53.2187,9.9512,83.6898,276.4258,0,U,53418,999,12931,-.64103E-4,-.1308E-4,0
STARLINK-4476,2022-097AH,2024-12-04T10:44:54.841344,15.08832975,.000159,53.2174,20.2270,86.4299,273.6875,0,U,53419,999,12914,.13316E-4,-.76E-6,0
STARLINK-4552,2022-097AJ,2024-12-04T12:04:22.867680,15.08854625,.0001351,53.2176,19.9777,92.1828,267.9319,0,U,53420,999,12915,-.30176E-4,-.768E-5,0
STARLINK-4545,2022-097AK,2024-12-04T10:39:36.173952,15.08848770,.0001594,53.2176,20.2455,98.3796,261.7377,0,U,53421,999,12914,-.10604E-4,-.457E-5,0
STARLINK-4546,2022-097AL,2024-12-04T11:53:47.217696,15.08848656,.0001512,53.2204,20.0079,82.2402,277.8761,0,U,53422,999,12917,.53666E-4,.566E-5,0
STARLINK-4539,2022-097AM,2024-12-04T10:35:41.953056,15.08829793,.0001665,53.2181,20.2657,83.8850,276.2331,0,U,53423,999,12914,.51363E-4,.529E-5,0
STARLINK-4532,2022-097AN,2024-12-04T11:43:14.869920,15.08777226,.0001249,53.2164,20.0443,87.6323,272.4812,0,U,53424,999,12917,-.85809E-3,-.13895E-3,0
STARLINK-4531,2022-097AP,2024-12-04T13:34:28.246944,15.08858173,.0001846,53.2183,19.6955,104.7275,255.3922,0,U,53425,999,12915,.11263E-3,.1506E-4,0
STARLINK-4558,2022-097AQ,2024-12-04T11:12:45.851904,15.08835293,.0001438,53.2191,10.2957,96.8998,263.2158,0,U,53426,999,12930,-.61506E-4,-.1267E-4,0
STARLINK-4541,2022-097AR,2024-12-04T10:04:27.988896,15.09431430,.0002044,53.2168,20.2884,66.2969,293.8238,0,U,53427,999,12916,.52122E-3,.8151E-4,0
STARLINK-4540,2022-097AS,2024-12-04T14:00:01.000224,15.71238069,.0001279,53.2173,3.5007,65.6099,172.8145,0,U,53428,999,12892,.86966E-2,.1252791E-1,0
STARLINK-4543,2022-097AT,2024-12-04T09:32:03.818688,15.08838296,.0001389,53.2182,10.5678,88.1031,272.0120,0,U,53429,999,12929,-.24198E-4,-.673E-5,0
STARLINK-4538,2022-097AU,2024-12-04T09:21:27.165600,15.08835518,.0001479,53.2193,10.5223,94.1554,265.9607,0,U,53430,999,12927,.15891E-4,-.35E-6,0
STARLINK-4548,2022-097AV,2024-12-04T09:58:28.732512,15.08836057,.0001704,53.2176,9.9859,86.0332,274.0855,0,U,53431,999,12930,.32697E-4,.232E-5,0
STARLINK-4557,2022-097AW,2024-12-04T11:55:05.308608,15.08834820,.0001592,53.2171,9.7683,94.1840,265.9334,0,U,53432,999,12931,.1971E-4,.26E-6,0
STARLINK-4549,2022-097AX,2024-12-04T10:51:32.035968,15.08853726,.0001191,53.2189,10.2018,92.8112,267.3017,0,U,53433,999,12928,-.29654E-3,-.5006E-4,0
STARLINK-4498,2022-097AY,2024-12-04T10:14:23.338464,15.08844427,.000218,53.2195,10.0413,95.9351,264.1890,0,U,53434,999,12931,-.36316E-4,-.866E-5,0
STARLINK-4542,2022-097AZ,2024-12-04T13:35:47.046336,15.08844574,.0001443,53.2173,9.4926,85.3424,274.7733,0,U,53435,999,12930,-.12186E-3,-.2227E-4,0
STARLINK-4527,2022-097BA,2024-12-04T10:09:00.104832,15.08904466,.0001857,53.2185,10.0218,76.8291,283.2908,0,U,53436,999,12930,.55178E-3,.852E-4,0
STARLINK-4526,2022-097BC,2024-12-04T10:03:45.935424,15.08829938,.0001459,53.2173,9.9981,94.5070,265.6089,0,U,53438,999,12931,.29695E-3,.444E-4,0
STARLINK-4519,2022-097BD,2024-12-04T08:45:41.512320,15.08838273,.0001922,53.2156,10.3641,92.8595,267.2618,0,U,53439,999,12930,.39383E-4,.339E-5,0
DONGPO 07,2022-098A,2024-12-04T14:26:39.559200,15.25581701,.0009403,97.5297,79.4517,227.1181,132.9268,0,U,53444,999,12842,.10914E-2,.27749E-3,0
JILIN-1 GAOFEN 03D09,2022-098B,2024-12-04T13:21:43.876512,15.26125602,.0004506,97.5328,79.5320,202.5851,157.5190,0,U,53445,999,12839,.11291E-2,.29161E-3,0
2022-098C,2022-098C,2024-12-04T13:18:49.047840,15.26125298,.0004678,97.5349,79.7170,224.7204,135.3658,0,U,53446,999,12839,.11387E-2,.29411E-3,0
